[{"name": "STARLINK-1008", "line1": "1 44714U 19074B   26136.61360181  .00013466  00000+0  27272-3 0  9997", "line2": "2 44714  53.1536 219.4482 0002192  24.7054 335.4058 15.46757537359321"}, {"name": "STARLINK-1012", "line1": "1 44718U 19074F   26136.61494036  .00014603  00000+0  29293-3 0  9997", "line2": "2 44718  53.1584 219.7546 0001936  19.4809 340.6273 15.46963719359313"}, {"name": "STARLINK-1017", "line1": "1 44723U 19074L   26135.62689547  .00025540  00000+0  88428-3 0  9993", "line2": "2 44723  53.0493 221.2279 0004338 320.9374  39.1311 15.29718169359191"}, {"name": "STARLINK-1020", "line1": "1 44725U 19074N   26136.57972182  .00044720  00000+0  75093-3 0  9995", "line2": "2 44725  53.1597 244.7726 0002424   8.3587 351.7462 15.51363604358940"}, {"name": "STARLINK-1036", "line1": "1 44741U 19074AE  26136.60848139  .00043390  00000+0  40501-3 0  9999", "line2": "2 44741  53.0424 216.4797 0002369 287.9152  72.1605 15.66893444359345"}, {"name": "STARLINK-1039", "line1": "1 44744U 19074AH  26136.40058676  .00035312  00000+0  13183-2 0  9999", "line2": "2 44744  53.0634 262.5587 0001989 353.6948   6.4025 15.27082584358685"}, {"name": "STARLINK-1042", "line1": "1 44747U 19074AL  26136.35180707  .00021289  00000+0  34164-3 0  9998", "line2": "2 44747  53.0406 129.2903 0003306  38.7549 321.3697 15.53026721360574"}, {"name": "STARLINK-1043", "line1": "1 44748U 19074AM  26135.97205079  .00031781  00000+0  41647-3 0  9998", "line2": "2 44748  53.0499 228.7403 0002176 320.3642  39.7210 15.58312742359121"}, {"name": "STARLINK-1046", "line1": "1 44751U 19074AQ  26136.60041457  .00046024  00000+0  74598-3 0  9998", "line2": "2 44751  53.0484 246.0327 0005602 357.9906   2.1080 15.52325997358930"}, {"name": "STARLINK-1047", "line1": "1 44752U 19074AR  26136.41394464  .00006728  00000+0  21288-3 0  9992", "line2": "2 44752  53.0682 189.2576 0003527  72.9707 287.1681 15.33975931359731"}, {"name": "STARLINK-1048", "line1": "1 44753U 19074AS  26136.44798784  .00042355  00000+0  42556-3 0  9996", "line2": "2 44753  53.0444 198.9712 0006187 345.3668  14.7167 15.65044715359572"}, {"name": "STARLINK-1063", "line1": "1 44768U 19074BH  26136.62588216  .00035862  00000+0  71102-3 0  9993", "line2": "2 44768  53.1570 260.4007 0000610  40.7687 319.3367 15.46719675358762"}, {"name": "STARLINK-1067", "line1": "1 44771U 19074BL  26136.54082520  .00063773  00000+0  49055-3 0  9999", "line2": "2 44771  53.0435 231.4769 0005840 304.9479  55.0989 15.71418471359136"}, {"name": "STARLINK-1068", "line1": "1 44772U 19074BM  26136.61963372  .00058017  00000+0  43204-3 0  9996", "line2": "2 44772  53.0438 204.8606 0002067  58.1971 301.9248 15.72243963359502"}, {"name": "STARLINK-1114", "line1": "1 44927U 20001P   26136.62219700  .00057672  00000+0  65227-3 0  9995", "line2": "2 44927  53.0434   0.2713 0001109  62.3925 297.7201 15.61907731350677"}, {"name": "STARLINK-1123", "line1": "1 44930U 20001S   26136.55369828  .00044449  00000+0  66528-3 0  9991", "line2": "2 44930  53.1469  26.1170 0002500 179.3474 180.7541 15.54558536350314"}, {"name": "STARLINK-1094", "line1": "1 44941U 20001AD  26136.59348495  .00025628  00000+0  43581-3 0  9996", "line2": "2 44941  53.1549   0.3888 0001763 215.2793 144.8100 15.51290853350683"}, {"name": "STARLINK-1122", "line1": "1 44949U 20001AM  26136.34235545  .00066551  00000+0  11226-2 0  9998", "line2": "2 44949  53.1582   2.1455 0001460 208.0518 152.0413 15.51066381350637"}, {"name": "STARLINK-1080", "line1": "1 44961U 20001AZ  26135.93247538  .00084500  00000+0  10905-2 0  9998", "line2": "2 44961  53.0464 324.0792 0002138 287.1601  72.9176 15.58283900351129"}, {"name": "STARLINK-1090", "line1": "1 44968U 20001BG  26136.59983888  .00033760  00000+0  64978-3 0  9995", "line2": "2 44968  53.1509 348.0753 0001060 178.4419 181.6593 15.47608626350856"}, {"name": "STARLINK-1132", "line1": "1 45044U 20006A   26134.71528718  .00049771  00000+0  80698-3 0  9991", "line2": "2 45044  53.1525 298.9638 0000572 128.0163 232.0899 15.52298414347154"}, {"name": "STARLINK-1131", "line1": "1 45047U 20006D   26136.22869539  .00056885  00000+0  10213-2 0  9990", "line2": "2 45047  53.1580 324.0017 0000534 206.2406 153.8576 15.49366836346934"}, {"name": "STARLINK-1134", "line1": "1 45048U 20006E   26136.40790380  .00109250  00000+0  16892-2 0  9992", "line2": "2 45048  53.0276 274.0940 0005604   7.2025 352.9064 15.53250153347635"}, {"name": "STARLINK-1156", "line1": "1 45054U 20006L   26135.93171757  .00041850  00000+0  12977-2 0  9998", "line2": "2 45054  53.1598 328.2816 0001490 261.7813  98.3020 15.33029749346843"}, {"name": "STARLINK-1166", "line1": "1 45060U 20006S   26136.57027614  .00054566  00000+0  77828-3 0  9993", "line2": "2 45060  53.0470 306.5977 0001302 261.0473  99.0390 15.55783516347192"}, {"name": "STARLINK-1169", "line1": "1 45061U 20006T   26136.53315288  .00038000  00000+0  10705-2 0  9992", "line2": "2 45061  53.1562 324.5622 0003220 208.5932 151.4896 15.36099737346951"}, {"name": "STARLINK-1171", "line1": "1 45062U 20006U   26136.41842000  .00063610  00000+0  48999-3 0  9999", "line2": "2 45062  53.0403 275.7459 0001693 221.3199 138.7690 15.71403579347616"}, {"name": "STARLINK-1133", "line1": "1 45064U 20006W   26136.48950847  .00042466  00000+0  13112-2 0  9991", "line2": "2 45064  53.1573 302.4613 0001765 280.8015  79.2788 15.33158396347264"}, {"name": "STARLINK-1167", "line1": "1 45071U 20006AD  26135.87447648  .00028562  00000+0  82055-3 0  9995", "line2": "2 45071  53.1584 304.7692 0002550 202.7439 157.3967 15.35271277347175"}, {"name": "STARLINK-1168", "line1": "1 45072U 20006AE  26135.49311471  .00028495  00000+0  88598-3 0  9991", "line2": "2 45072  53.1580 307.3249 0001828 273.8729  86.2064 15.33131359347102"}]